NORAD_CAT_ID,OBJECT_NAME,OBJECT_TYPE,EPOCH,MEAN_MOTION,ECCENTRICITY,INCLINATION,RA_OF_ASC_NODE,ARG_OF_PERICENTER,MEAN_ANOMALY,BSTAR,MEAN_MOTION_DOT,MEAN_MOTION_DDOT,TLE_LINE0,TLE_LINE1,TLE_LINE2,SEMIMAJOR_AXIS,PERIOD,APOGEE,PERIGEE,DECAYED
54194.0,STARLINK-5271,PAYLOAD,2024-04-19 11:54:48,15.08842795,0.000147,53.2168,207.9964,80.1086,280.0072,0.00024554,3.622e-05,0.0,0 STARLINK-5271,1 54194U 22141AP  24110.49639735  .00003622  00000-0  24554-3 0  9993,2 54194  53.2168 207.9964 0001470  80.1086 280.0072 15.08842795 81953,6917.872,95.437,540.754,538.72,0.0
54194.0,STARLINK-5271,PAYLOAD,2024-04-20 10:10:13,15.0883921,0.0001512,53.2179,203.8344,89.8272,270.2894,0.00023666,3.48e-05,0.0,0 STARLINK-5271,1 54194U 22141AP  24111.42376316  .00003480  00000-0  23666-3 0  9995,2 54194  53.2179 203.8344 0001512  89.8272 270.2894 15.08839210 82325,6917.883,95.438,540.794,538.702,0.0
54194.0,STARLINK-5271,PAYLOAD,2024-04-20 16:31:45,15.08843133,0.0002004,53.2168,202.6377,117.5899,242.5297,0.00022277,3.259e-05,0.0,0 STARLINK-5271,1 54194U 22141AP  24111.68871930  .00003259  00000-0  22277-3 0  9996,2 54194  53.2168 202.6377 0002004 117.5899 242.5297 15.08843133 82134,6917.871,95.437,541.122,538.349,0.0
54194.0,STARLINK-5271,PAYLOAD,2024-04-21 11:36:23,15.08826015,0.0001574,53.2177,199.0756,93.4313,266.6859,-7.7417e-05,-1.519e-05,0.0,0 STARLINK-5271,1 54194U 22141AP  24112.48360929 -.00001519  00000-0 -77417-4 0  9992,2 54194  53.2177 199.0756 0001574  93.4313 266.6859 15.08826015 82252,6917.923,95.438,540.877,538.699,0.0
54194.0,STARLINK-5271,PAYLOAD,2024-04-21 14:47:09,15.08832425,0.0002592,53.218,198.4761,136.3565,223.7632,5.832e-05,6.4e-06,0.0,0 STARLINK-5271,1 54194U 22141AP  24112.61608482  .00000640  00000-0  58320-4 0  9990,2 54194  53.2180 198.4761 0002592 136.3565 223.7632 15.08832425 82505,6917.904,95.438,541.562,537.975,0.0
54194.0,STARLINK-5271,PAYLOAD,2024-04-22 09:51:47,15.08837936,0.0002214,53.2195,194.9104,127.6028,232.5166,0.00019821,2.868e-05,0.0,0 STARLINK-5271,1 54194U 22141AP  24113.41097117  .00002868  00000-0  19821-3 0  9992,2 54194  53.2195 194.9104 0002214 127.6028 232.5166 15.08837936 82390,6917.887,95.438,541.283,538.22,0.0
54194.0,STARLINK-5271,PAYLOAD,2024-04-22 13:02:34,15.08850848,0.0001803,53.2166,194.3096,120.0686,240.0485,0.00069688,0.00010824,0.0,0 STARLINK-5271,1 54194U 22141AP  24113.54345002  .00010824  00000-0  69688-3 0  9992,2 54194  53.2166 194.3096 0001803 120.0686 240.0485 15.08850848 82410,6917.847,95.437,540.96,538.465,0.0
54194.0,STARLINK-5271,PAYLOAD,2024-04-23 04:56:25,15.08842253,0.0001694,53.2191,191.3417,128.6234,231.491,0.00029352,4.387e-05,0.0,0 STARLINK-5271,1 54194U 22141AP  24114.20585078  .00004387  00000-0  29352-3 0  9996,2 54194  53.2191 191.3417 0001694 128.6234 231.4910 15.08842253 82747,6917.874,95.437,540.91,538.567,0.0
54194.0,STARLINK-5271,PAYLOAD,2024-04-23 11:17:57,15.08849053,0.0001569,53.2165,190.1557,75.7376,284.3791,0.00030125,4.511e-05,0.0,0 STARLINK-5271,1 54194U 22141AP  24114.47080971  .00004511  00000-0  30125-3 0  9996,2 54194  53.2165 190.1557 0001569  75.7376 284.3791 15.08849053 82558,6917.853,95.437,540.803,538.632,0.0
54194.0,STARLINK-5271,PAYLOAD,2024-04-24 11:08:45,15.08842294,0.000181,53.2162,185.6963,73.707,286.4121,7.9296e-05,9.74e-06,0.0,0 STARLINK-5271,1 54194U 22141AP  24115.46441012  .00000974  00000-0  79296-4 0  9995,2 54194  53.2162 185.6963 0001810  73.7070 286.4121 15.08842294 82935,6917.873,95.437,540.991,538.486,0.0
54194.0,STARLINK-5271,PAYLOAD,2024-04-25 14:10:18,15.088446,0.0001506,53.2162,180.6274,105.4842,254.6316,0.00021864,3.194e-05,0.0,0 STARLINK-5271,1 54194U 22141AP  24116.59048749  .00003194  00000-0  21864-3 0  9994,2 54194  53.2162 180.6274 0001506 105.4842 254.6316 15.08844600 82876,6917.866,95.437,540.773,538.689,0.0
54194.0,STARLINK-5271,PAYLOAD,2024-04-26 04:28:46,15.08837882,0.0001345,53.2164,177.9453,100.0681,260.0462,-8.2235e-05,-1.596e-05,0.0,0 STARLINK-5271,1 54194U 22141AP  24117.18664984 -.00001596  00000-0 -82235-4 0  9991,2 54194  53.2164 177.9453 0001345 100.0681 260.0462 15.08837882 83192,6917.887,95.438,540.682,538.821,0.0
54194.0,STARLINK-5271,PAYLOAD,2024-04-26 10:50:19,15.08842497,0.0001368,53.2164,176.7701,100.2791,259.8356,3.9458e-06,-2.25e-06,0.0,0 STARLINK-5271,1 54194U 22141AP  24117.45161008 -.00000225  00000-0  39458-5 0  9997,2 54194  53.2164 176.7701 0001368 100.2791 259.8356 15.08842497 83000,6917.873,95.437,540.684,538.791,0.0
54194.0,STARLINK-5271,PAYLOAD,2024-04-27 04:19:33,15.08855207,0.000139,53.2152,173.4981,96.6274,263.4876,0.00015196,2.132e-05,0.0,0 STARLINK-5271,1 54194U 22141AP  24118.18024324  .00002132  00000-0  15196-3 0  9996,2 54194  53.2152 173.4981 0001390  96.6274 263.4876 15.08855207 83348,6917.834,95.437,540.66,538.737,0.0
54194.0,STARLINK-5271,PAYLOAD,2024-04-27 10:41:05,15.08869816,0.0001503,53.2158,172.3107,100.9982,259.1179,0.00065361,0.00010138,0.0,0 STARLINK-5271,1 54194U 22141AP  24118.44519757  .00010138  00000-0  65361-3 0  9998,2 54194  53.2158 172.3107 0001503 100.9982 259.1179 15.08869816 83386,6917.789,95.436,540.694,538.615,0.0
54194.0,STARLINK-5271,PAYLOAD,2024-04-27 20:13:24,15.08846481,0.000146,53.215,170.5242,91.7727,268.3433,0.00012897,1.766e-05,0.0,0 STARLINK-5271,1 54194U 22141AP  24118.84264137  .00001766  00000-0  12897-3 0  9994,2 54194  53.2150 170.5242 0001460  91.7727 268.3433 15.08846481 83449,6917.861,95.437,540.736,538.716,0.0
54194.0,STARLINK-5271,PAYLOAD,2024-04-28 10:31:53,15.08827266,0.0001634,53.2157,167.8502,116.7109,243.405,-0.00032009,-5.377e-05,0.0,0 STARLINK-5271,1 54194U 22141AP  24119.43880888 -.00005377  00000-0 -32009-3 0  9998,2 54194  53.2157 167.8502 0001634 116.7109 243.4050 15.08827266 83538,6917.919,95.438,540.915,538.654,0.0
54194.0,STARLINK-5271,PAYLOAD,2024-04-28 20:04:12,15.08821536,0.0001674,53.2158,166.0653,115.8215,244.295,0.000458,7.005e-05,0.0,0 STARLINK-5271,1 54194U 22141AP  24119.83625585  .00007005  00000-0  45800-3 0  9994,2 54194  53.2158 166.0653 0001674 115.8215 244.2950 15.08821536 83362,6917.937,95.439,540.96,538.644,0.0
54194.0,STARLINK-5271,PAYLOAD,2024-04-29 10:22:40,15.08842172,0.0001452,53.2144,163.3881,117.0751,243.039,0.00084791,0.00013233,0.0,0 STARLINK-5271,1 54194U 22141AP  24120.43241698  .00013233  00000-0  84791-3 0  9993,2 54194  53.2144 163.3881 0001452 117.0751 243.0390 15.08842172 83682,6917.874,95.437,540.743,538.734,0.0
54194.0,STARLINK-5271,PAYLOAD,2024-04-29 19:54:59,15.08849877,0.0001399,53.2142,161.6035,113.3152,246.7988,0.00068617,0.00010652,0.0,0 STARLINK-5271,1 54194U 22141AP  24120.82985511  .00010652  00000-0  68617-3 0  9996,2 54194  53.2142 161.6035 0001399 113.3152 246.7988 15.08849877 83510,6917.85,95.437,540.683,538.747,0.0
54194.0,STARLINK-5271,PAYLOAD,2024-04-30 08:38:04,15.08858743,0.0001401,53.2142,159.2242,113.3184,246.7956,0.00063447,9.829e-05,0.0,0 STARLINK-5271,1 54194U 22141AP  24121.35977015  .00009829  00000-0  63447-3 0  9995,2 54194  53.2142 159.2242 0001401 113.3184 246.7956 15.08858743 83597,6917.823,95.436,540.657,538.719,0.0
54194.0,STARLINK-5271,PAYLOAD,2024-04-30 19:45:45,15.08852805,0.000106,53.2115,157.1424,111.0207,249.0899,0.00041256,6.286e-05,0.0,0 STARLINK-5271,1 54194U 22141AP  24121.82344831  .00006286  00000-0  41256-3 0  9999,2 54194  53.2115 157.1424 0001060 111.0207 249.0899 15.08852805 83896,6917.841,95.437,540.44,538.973,0.0
54194.0,STARLINK-5271,PAYLOAD,2024-05-01 11:39:37,15.08839649,0.0001351,53.2141,154.1668,114.1209,245.9924,2.8038e-05,1.58e-06,0.0,0 STARLINK-5271,1 54194U 22141AP  24122.48585329  .00000158  00000-0  28038-4 0  9997,2 54194  53.2141 154.1668 0001351 114.1209 245.9924 15.08839649 83997,6917.881,95.438,540.681,538.812,0.0
54194.0,STARLINK-5271,PAYLOAD,2024-05-01 19:36:33,15.0884438,0.0001351,53.2144,152.6808,112.4563,247.6572,0.00012642,1.725e-05,0.0,0 STARLINK-5271,1 54194U 22141AP  24122.81705241  .00001725  00000-0  12642-3 0  9995,2 54194  53.2144 152.6808 0001351 112.4563 247.6572 15.08844380 83810,6917.867,95.437,540.667,538.797,0.0
54194.0,STARLINK-5271,PAYLOAD,2024-05-02 08:19:37,15.08854651,0.0001416,53.2167,150.3017,109.5605,250.554,0.00011118,1.483e-05,0.0,0 STARLINK-5271,1 54194U 22141AP  24123.34696688  .00001483  00000-0  11118-3 0  9996,2 54194  53.2167 150.3017 0001416 109.5605 250.5540 15.08854651 84123,6917.836,95.437,540.68,538.721,0.0
54194.0,STARLINK-5271,PAYLOAD,2024-05-03 04:59:38,15.08848635,0.0001298,53.215,146.4381,96.9734,263.1405,0.00027399,4.076e-05,0.0,0 STARLINK-5271,1 54194U 22141AP  24124.20808874  .00004076  00000-0  27399-3 0  9993,2 54194  53.2150 146.4381 0001298  96.9734 263.1405 15.08848635 84254,6917.854,95.437,540.617,538.821,0.0
54194.0,STARLINK-5271,PAYLOAD,2024-05-03 11:21:11,15.08853923,0.0001239,53.2145,145.2489,93.4696,266.6438,0.00028562,4.262e-05,0.0,0 STARLINK-5271,1 54194U 22141AP  24124.47304534  .00004262  00000-0  28562-3 0  9996,2 54194  53.2145 145.2489 0001239  93.4696 266.6438 15.08853923 84067,6917.838,95.437,540.56,538.846,0.0
54194.0,STARLINK-5271,PAYLOAD,2024-05-04 04:50:26,15.08832041,0.0001205,53.2142,141.9722,107.9701,252.1423,-0.00011048,-2.045e-05,0.0,0 STARLINK-5271,1 54194U 22141AP  24125.20169456 -.00002045  00000-0 -11048-3 0  9990,2 54194  53.2142 141.9722 0001205 107.9701 252.1423 15.08832041 84408,6917.905,95.438,540.603,538.936,0.0
54194.0,STARLINK-5271,PAYLOAD,2024-05-05 06:16:37,15.08833041,0.0001284,53.2149,137.2155,93.5175,266.5964,-3.4439e-05,-8.36e-06,0.0,0 STARLINK-5271,1 54194U 22141AP  24126.26154622 -.00000836  00000-0 -34439-4 0  9992,2 54194  53.2149 137.2155 0001284  93.5175 266.5964 15.08833041 84562,6917.902,95.438,540.655,538.878,0.0
54194.0,STARLINK-5271,PAYLOAD,2024-05-05 17:24:19,15.08837006,0.0001257,53.216,135.1377,88.8852,271.2284,2.5162e-05,1.13e-06,0.0,0 STARLINK-5271,1 54194U 22141AP  24126.72522502  .00000113  00000-0  25162-4 0  9998,2 54194  53.2160 135.1377 0001257  88.8852 271.2284 15.08837006 84403,6917.89,95.438,540.624,538.885,0.0
